start=new Date('2023-01-22T00:00:00.000Z').valueOf();
sats=[{"ELEMENT_SET_NO":"999","NORAD_CAT_ID":"46552","ARG_OF_PERICENTER":"141.6935","PERIOD":"91.892","EPOCH":"2023-01-21T14:00:01.000224","REV_AT_EPOCH":"12812","SITE":"AFETR","RCS_SIZE":"LARGE","INCLINATION":"53.0439","DECAY_DATE":null,"MEAN_MOTION_DOT":"0.00118051","TLE_LINE1":"1 46552U 20070W   23021.58334491  .00118051  00000-0  10758-2 0  9995","PERIAPSIS":"367.045","TIME_SYSTEM":"UTC","RA_OF_ASC_NODE":"199.5067","OBJECT_NAME":"STARLINK-1649","MEAN_MOTION_DDOT":"0.0000000000000","BSTAR":"0.00107580000000","MEAN_MOTION":"15.67061007","SEMIMAJOR_AXIS":"6745.455","OBJECT_ID":"2020-070W","MEAN_ANOMALY":"93.3499","TLE_LINE2":"2 46552  53.0439 199.5067 0000407 141.6935  93.3499 15.67061007128129","CLASSIFICATION_TYPE":"U","ECCENTRICITY":"0.00004070","FILE":"3757006","COUNTRY_CODE":"US","GP_ID":"223573790","OBJECT_TYPE":"PAYLOAD","LAUNCH_DATE":"2020-10-06","REF_FRAME":"TEME","APOAPSIS":"367.594","CENTER_NAME":"EARTH","EPHEMERIS_TYPE":"0","MEAN_ELEMENT_THEORY":"SGP4"},{"EPOCH":"2023-01-21T21:01:08.530752","REV_AT_EPOCH":"12768","SITE":"AFETR","NORAD_CAT_ID":"46553","ELEMENT_SET_NO":"999","ARG_OF_PERICENTER":"83.1359","PERIOD":"95.591","PERIAPSIS":"546.322","RA_OF_ASC_NODE":"236.9302","TIME_SYSTEM":"UTC","OBJECT_NAME":"STARLINK-1664","MEAN_MOTION_DDOT":"0.0000000000000","BSTAR":"0.00058196000000","MEAN_MOTION":"15.06411976","RCS_SIZE":"LARGE","INCLINATION":"53.0516","DECAY_DATE":null,"MEAN_MOTION_DOT":"0.00008400","TLE_LINE1":"1 46553U 20070X   23021.87579318  .00008400  00000-0  58196-3 0  9992","ECCENTRICITY":"0.00012340","FILE":"3757257","SEMIMAJOR_AXIS":"6925.312","MEAN_ANOMALY":"276.9770","OBJECT_ID":"2020-070X","TLE_LINE2":"2 46553  53.0516 236.9302 0001234  83.1359 276.9770 15.06411976127681","CLASSIFICATION_TYPE":"U","OBJECT_TYPE":"PAYLOAD","LAUNCH_DATE":"2020-10-06","REF_FRAME":"TEME","APOAPSIS":"548.031","EPHEMERIS_TYPE":"0","CENTER_NAME":"EARTH","MEAN_ELEMENT_THEORY":"SGP4","GP_ID":"223579708","COUNTRY_CODE":"US"},{"FILE":"3757007","ECCENTRICITY":"0.00015720","CLASSIFICATION_TYPE":"U","TLE_LINE2":"2 46554  53.0546 254.3562 0001572  85.1548 274.9620 15.06403567127391","OBJECT_ID":"2020-070Y","MEAN_ANOMALY":"274.9620","SEMIMAJOR_AXIS":"6925.338","MEAN_ELEMENT_THEORY":"SGP4","CENTER_NAME":"EARTH","EPHEMERIS_TYPE":"0","APOAPSIS":"548.291","REF_FRAME":"TEME","LAUNCH_DATE":"2020-10-06","OBJECT_TYPE":"PAYLOAD","GP_ID":"223573804","COUNTRY_CODE":"US","SITE":"AFETR","REV_AT_EPOCH":"12739","EPOCH":"2023-01-21T07:56:15.817632","PERIOD":"95.592","ARG_OF_PERICENTER":"85.1548","NORAD_CAT_ID":"46554","ELEMENT_SET_NO":"999","BSTAR":"0.00046733000000","MEAN_MOTION":"15.06403567","MEAN_MOTION_DDOT":"0.0000000000000","OBJECT_NAME":"STARLINK-1671","RA_OF_ASC_NODE":"254.3562","TIME_SYSTEM":"UTC","PERIAPSIS":"546.114","TLE_LINE1":"1 46554U 20070Y   23021.33073863  .00006687  00000-0  46733-3 0  9997","MEAN_MOTION_DOT":"0.00006687","DECAY_DATE":null,"INCLINATION":"53.0546","RCS_SIZE":"LARGE"},{"TLE_LINE2":"2 46556  53.0535 269.0800 0001424  88.6341 271.4811 15.06410270127207","MEAN_ANOMALY":"271.4811","OBJECT_ID":"2020-070AA","SEMIMAJOR_AXIS":"6925.317","CLASSIFICATION_TYPE":"U","ECCENTRICITY":"0.00014240","FILE":"3757018","GP_ID":"223573816","COUNTRY_CODE":"US","OBJECT_TYPE":"PAYLOAD","MEAN_ELEMENT_THEORY":"SGP4","CENTER_NAME":"EARTH","EPHEMERIS_TYPE":"0","APOAPSIS":"548.168","LAUNCH_DATE":"2020-10-06","REF_FRAME":"TEME","NORAD_CAT_ID":"46556","ELEMENT_SET_NO":"999","PERIOD":"95.591","ARG_OF_PERICENTER":"88.6341","SITE":"AFETR","REV_AT_EPOCH":"12720","EPOCH":"2023-01-21T09:21:51.065568","MEAN_MOTION_DOT":"0.00007536","DECAY_DATE":null,"INCLINATION":"53.0535","RCS_SIZE":"LARGE","TLE_LINE1":"1 46556U 20070AA  23021.39017437  .00007536  00000-0  52415-3 0  9998","MEAN_MOTION_DDOT":"0.0000000000000","OBJECT_NAME":"STARLINK-1676","TIME_SYSTEM":"UTC","RA_OF_ASC_NODE":"269.0800","PERIAPSIS":"546.196","BSTAR":"0.00052415000000","MEAN_MOTION":"15.06410270"},{"BSTAR":"0.00065261000000","MEAN_MOTION":"15.06410092","OBJECT_NAME":"STARLINK-1679","MEAN_MOTION_DDOT":"0.0000000000000","PERIAPSIS":"546.446","TIME_SYSTEM":"UTC","RA_OF_ASC_NODE":"254.1974","TLE_LINE1":"1 46557U 20070AB  23021.36759608  .00009455  00000-0  65261-3 0  9994","DECAY_DATE":null,"MEAN_MOTION_DOT":"0.00009455","RCS_SIZE":"LARGE","INCLINATION":"53.0526","REV_AT_EPOCH":"12740","SITE":"AFETR","EPOCH":"2023-01-21T08:49:20.301312","PERIOD":"95.591","ARG_OF_PERICENTER":"89.1376","NORAD_CAT_ID":"46557","ELEMENT_SET_NO":"999","EPHEMERIS_TYPE":"0","CENTER_NAME":"EARTH","MEAN_ELEMENT_THEORY":"SGP4","REF_FRAME":"TEME","LAUNCH_DATE":"2020-10-06","APOAPSIS":"547.919","OBJECT_TYPE":"PAYLOAD","GP_ID":"223573836","COUNTRY_CODE":"US","FILE":"3757009","ECCENTRICITY":"0.00010630","CLASSIFICATION_TYPE":"U","OBJECT_ID":"2020-070AB","MEAN_ANOMALY":"270.9735","TLE_LINE2":"2 46557  53.0526 254.1974 0001063  89.1376 270.9735 15.06410092127401","SEMIMAJOR_AXIS":"6925.318"},{"COUNTRY_CODE":"US","GP_ID":"223580118","OBJECT_TYPE":"PAYLOAD","LAUNCH_DATE":"2020-10-06","REF_FRAME":"TEME","APOAPSIS":"548.080","EPHEMERIS_TYPE":"0","CENTER_NAME":"EARTH","MEAN_ELEMENT_THEORY":"SGP4","SEMIMAJOR_AXIS":"6925.364","OBJECT_ID":"2020-070AC","MEAN_ANOMALY":"276.7815","TLE_LINE2":"2 46558  53.0532 252.9748 0001229  83.3314 276.7815 15.06395014127449","CLASSIFICATION_TYPE":"U","ECCENTRICITY":"0.00012290","FILE":"3757264","RCS_SIZE":"LARGE","INCLINATION":"53.0532","DECAY_DATE":null,"MEAN_MOTION_DOT":"0.00002047","TLE_LINE1":"1 46558U 20070AC  23021.64036611  .00002047  00000-0  15630-3 0  9993","PERIAPSIS":"546.378","TIME_SYSTEM":"UTC","RA_OF_ASC_NODE":"252.9748","OBJECT_NAME":"STARLINK-1680","MEAN_MOTION_DDOT":"0.0000000000000","BSTAR":"0.00015630000000","MEAN_MOTION":"15.06395014","NORAD_CAT_ID":"46558","ELEMENT_SET_NO":"999","ARG_OF_PERICENTER":"83.3314","PERIOD":"95.592","EPOCH":"2023-01-21T15:22:07.631904","REV_AT_EPOCH":"12744","SITE":"AFETR"},{"PERIOD":"95.592","ARG_OF_PERICENTER":"81.4117","ELEMENT_SET_NO":"999","NORAD_CAT_ID":"46559","SITE":"AFETR","REV_AT_EPOCH":"12761","EPOCH":"2023-01-21T10:17:32.798976","TLE_LINE1":"1 46559U 20070AD  23021.42885184  .00003337  00000-0  24281-3 0  9992","MEAN_MOTION_DOT":"0.00003337","DECAY_DATE":null,"INCLINATION":"53.0512","RCS_SIZE":"LARGE","BSTAR":"0.00024281000000","MEAN_MOTION":"15.06403156","MEAN_MOTION_DDOT":"0.0000000000000","OBJECT_NAME":"STARLINK-1681","TIME_SYSTEM":"UTC","RA_OF_ASC_NODE":"238.9088","PERIAPSIS":"546.261","CLASSIFICATION_TYPE":"U","TLE_LINE2":"2 46559  53.0512 238.9088 0001362  81.4117 278.7026 15.06403156127619","OBJECT_ID":"2020-070AD","MEAN_ANOMALY":"278.7026","SEMIMAJOR_AXIS":"6925.339","FILE":"3757010","ECCENTRICITY":"0.00013620","GP_ID":"223574171","COUNTRY_CODE":"US","MEAN_ELEMENT_THEORY":"SGP4","CENTER_NAME":"EARTH","EPHEMERIS_TYPE":"0","APOAPSIS":"548.147","REF_FRAME":"TEME","LAUNCH_DATE":"2020-10-06","OBJECT_TYPE":"PAYLOAD"},{"NORAD_CAT_ID":"46560","ELEMENT_SET_NO":"999","PERIOD":"92.844","ARG_OF_PERICENTER":"108.1512","SITE":"AFETR","REV_AT_EPOCH":"12741","EPOCH":"2023-01-20T22:52:58.882656","MEAN_MOTION_DOT":"0.00065285","DECAY_DATE":null,"INCLINATION":"53.0523","RCS_SIZE":"LARGE","TLE_LINE1":"1 46560U 20070AE  23020.95345929  .00065285  00000-0  11046-2 0  9993","MEAN_MOTION_DDOT":"0.0000000000000","OBJECT_NAME":"STARLINK-1706","TIME_SYSTEM":"UTC","RA_OF_ASC_NODE":"250.7108","PERIAPSIS":"413.584","BSTAR":"0.00110460000000","MEAN_MOTION":"15.50985795","TLE_LINE2":"2 46560  53.0523 250.7108 0000390 108.1512 251.9539 15.50985795127417","OBJECT_ID":"2020-070AE","MEAN_ANOMALY":"251.9539","SEMIMAJOR_AXIS":"6791.984","CLASSIFICATION_TYPE":"U","ECCENTRICITY":"0.00003900","FILE":"3756725","COUNTRY_CODE":"US","GP_ID":"223567569","OBJECT_TYPE":"PAYLOAD","MEAN_ELEMENT_THEORY":"SGP4","EPHEMERIS_TYPE":"0","CENTER_NAME":"EARTH","APOAPSIS":"414.113","LAUNCH_DATE":"2020-10-06","REF_FRAME":"TEME"},{"ARG_OF_PERICENTER":"94.4024","PERIOD":"95.592","NORAD_CAT_ID":"46561","ELEMENT_SET_NO":"999","EPOCH":"2023-01-21T20:55:08.602176","REV_AT_EPOCH":"12747","SITE":"AFETR","TLE_LINE1":"1 46561U 20070AF  23021.87162734  .00001722  00000-0  13446-3 0  9990","RCS_SIZE":"LARGE","INCLINATION":"53.0532","DECAY_DATE":null,"MEAN_MOTION_DOT":"0.00001722","BSTAR":"0.00013446000000","MEAN_MOTION":"15.06404701","PERIAPSIS":"546.480","RA_OF_ASC_NODE":"251.9520","TIME_SYSTEM":"UTC","OBJECT_NAME":"STARLINK-1709","MEAN_MOTION_DDOT":"0.0000000000000","CLASSIFICATION_TYPE":"U","SEMIMAJOR_AXIS":"6925.334","MEAN_ANOMALY":"265.7083","OBJECT_ID":"2020-070AF","TLE_LINE2":"2 46561  53.0532 251.9520 0001038  94.4024 265.7083 15.06404701127471","FILE":"3757274","ECCENTRICITY":"0.00010380","COUNTRY_CODE":"US","GP_ID":"223580053","REF_FRAME":"TEME","LAUNCH_DATE":"2020-10-06","APOAPSIS":"547.918","CENTER_NAME":"EARTH","EPHEMERIS_TYPE":"0","MEAN_ELEMENT_THEORY":"SGP4","OBJECT_TYPE":"PAYLOAD"},{"ARG_OF_PERICENTER":"89.3898","PERIOD":"95.592","NORAD_CAT_ID":"46562","ELEMENT_SET_NO":"999","EPOCH":"2023-01-21T08:08:49.873632","SITE":"AFETR","REV_AT_EPOCH":"12715","TLE_LINE1":"1 46562U 20070AG  23021.33946613  .00006044  00000-0  42421-3 0  9995","INCLINATION":"53.0536","RCS_SIZE":"LARGE","MEAN_MOTION_DOT":"0.00006044","DECAY_DATE":null,"BSTAR":"0.00042421000000","MEAN_MOTION":"15.06405584","RA_OF_ASC_NODE":"249.3042","TIME_SYSTEM":"UTC","PERIAPSIS":"546.506","MEAN_MOTION_DDOT":"0.0000000000000","OBJECT_NAME":"STARLINK-1714","CLASSIFICATION_TYPE":"U","SEMIMAJOR_AXIS":"6925.331","TLE_LINE2":"2 46562  53.0536 249.3042 0000997  89.3898 270.7205 15.06405584127158","MEAN_ANOMALY":"270.7205","OBJECT_ID":"2020-070AG","FILE":"3757193","ECCENTRICITY":"0.00009970","GP_ID":"223578587","COUNTRY_CODE":"US","APOAPSIS":"547.887","LAUNCH_DATE":"2020-10-06","REF_FRAME":"TEME","MEAN_ELEMENT_THEORY":"SGP4","CENTER_NAME":"EARTH","EPHEMERIS_TYPE":"0","OBJECT_TYPE":"PAYLOAD"}];
